sat27657
1 27657U 01049NU  20046.26129809  .00000103  00000-0  12902-4 0  9992
2 27657  97.9320  73.7661 0036720 157.8341 267.0630 15.01585495957846
